NORAD_CAT_ID,OBJECT_NAME,OBJECT_TYPE,EPOCH,MEAN_MOTION,ECCENTRICITY,INCLINATION,RA_OF_ASC_NODE,ARG_OF_PERICENTER,MEAN_ANOMALY,BSTAR,MEAN_MOTION_DOT,MEAN_MOTION_DDOT,TLE_LINE0,TLE_LINE1,TLE_LINE2,SEMIMAJOR_AXIS,PERIOD,APOGEE,PERIGEE,DECAYED
53418.0,STARLINK-4481,PAYLOAD,2022-09-16 02:00:01,15.73288335,0.0001395,53.2181,65.3835,55.0306,251.7538,-0.00092957,-0.00129579,0.0,0 STARLINK-4481,1 53418U 22097AG  22259.08334491 -.00129579  00000-0 -92957-3 0  9993,2 53418  53.2181  65.3835 0001395  55.0306 251.7538 15.73288335  6237,6727.643,91.528,350.44699999999995,348.57,0.0
53418.0,STARLINK-4481,PAYLOAD,2022-09-16 14:00:01,15.73153888,0.0001306,53.2187,62.9089,56.8361,203.371,9.7715e-06,7.49e-06,0.0,0 STARLINK-4481,1 53418U 22097AG  22259.58334491  .00000749  00000-0  97715-5 0  9992,2 53418  53.2187  62.9089 0001306  56.8361 203.3710 15.73153888  1301,6728.026999999999,91.536,350.77,349.01300000000015,0.0
53418.0,STARLINK-4481,PAYLOAD,2022-09-16 16:00:00,15.73161624,0.0001327,53.2186,62.4971,50.9454,321.4809,-6.689100000000001e-05,-9.981e-05,0.0,0 STARLINK-4481,1 53418U 22097AG  22259.66667824 -.00009981  00000-0 -66891-4 0  9999,2 53418  53.2186  62.4971 0001327  50.9454 321.4809 15.73161624  6321,6728.005,91.535,350.76199999999994,348.977,0.0
53418.0,STARLINK-4481,PAYLOAD,2022-09-16 22:00:00,15.73144203,0.0001322,53.2186,61.2611,39.1548,309.9344,3.5104e-05,4.298e-05,0.0,0 STARLINK-4481,1 53418U 22097AG  22259.91667824  .00004298  00000-0  35104-4 0  9994,2 53418  53.2186  61.2611 0001322  39.1548 309.9344 15.73144203  1309,6728.054,91.536,350.809,349.03,0.0
53418.0,STARLINK-4481,PAYLOAD,2022-09-17 14:00:01,15.73189385,0.0001179,53.2185,57.9614,38.0113,128.7903,0.00021865,0.00030162,0.0,0 STARLINK-4481,1 53418U 22097AG  22260.58334491  .00030162  00000-0  21865-3 0  9997,2 53418  53.2185  57.9614 0001179  38.0113 128.7903 15.73189385  1307,6727.925,91.534,350.584,348.997,0.0
53418.0,STARLINK-4481,PAYLOAD,2022-09-17 22:00:00,15.73186176,0.0001374,53.218,56.3134,29.7011,226.0107,0.00072454,0.00102249,0.0,0 STARLINK-4481,1 53418U 22097AG  22260.91667824  .00102249  00000-0  72454-3 0  9999,2 53418  53.2180  56.3134 0001374  29.7011 226.0107 15.73186176  1306,6727.935,91.534,350.724,348.875,0.0
53418.0,STARLINK-4481,PAYLOAD,2022-09-18 14:00:01,15.73291547,0.0001242999999999,53.2179,53.0047,47.4707,26.2453,-0.00085793,-0.00119792,0.0,0 STARLINK-4481,1 53418U 22097AG  22261.58335648 -.00119792  00000-0 -85793-3 0  9992,2 53418  53.2179  53.0047 0001243  47.4707  26.2453 15.73291547  6639,6727.634,91.528,350.335,348.663,0.0
53418.0,STARLINK-4481,PAYLOAD,2022-09-18 22:00:00,15.73181496,0.0001127,53.2173,51.3517,45.755,116.8921,0.0002641,0.00036577,0.0,0 STARLINK-4481,1 53418U 22097AG  22261.91667824  .00036577  00000-0  26410-3 0  9991,2 53418  53.2173  51.3517 0001127  45.7550 116.8921 15.73181496  1300,6727.948,91.534,350.571,349.055,0.0
53418.0,STARLINK-4481,PAYLOAD,2022-09-19 06:00:02,15.73222813,0.000152,53.2183,49.7132,41.1567,210.5299,-9.2091e-05,-0.00013537,0.0,0 STARLINK-4481,1 53418U 22097AG  22262.25002315 -.00013537  00000-0 -92091-4 0  9999,2 53418  53.2183  49.7132 0001520  41.1567 210.5299 15.73222813  6731,6727.83,91.532,350.718,348.673,0.0
53418.0,STARLINK-4481,PAYLOAD,2022-09-19 14:00:01,15.73242677,0.0001520999999999,53.2181,48.0648,33.1146,307.4669,-0.00051119,-0.00071884,0.0,0 STARLINK-4481,1 53418U 22097AG  22262.58334491 -.00071884  00000-0 -51119-3 0  9992,2 53418  53.2181  48.0648 0001521  33.1146 307.4669 15.73242677  1303,6727.774,91.531,350.662,348.615,0.0
53418.0,STARLINK-4481,PAYLOAD,2022-09-19 22:00:00,15.73205482,0.0001743,53.2175,46.4163,28.1586,41.356,0.00015097,0.00020624,0.0,0 STARLINK-4481,1 53418U 22097AG  22262.91667824  .00020624  00000-0  15097-3 0  9997,2 53418  53.2175  46.4163 0001743  28.1586  41.3560 15.73205482  1305,6727.88,91.533,350.917,348.57199999999995,0.0
53418.0,STARLINK-4481,PAYLOAD,2022-09-20 06:00:00,15.73202483,0.0001635,53.2176,44.7647,36.7809,121.7076,-0.00019197,-0.00027478,0.0,0 STARLINK-4481,1 53418U 22097AG  22263.25001157 -.00027478  00000-0 -19197-3 0  9997,2 53418  53.2176  44.7647 0001635  36.7809 121.7076 15.73202483  6899,6727.888000000001,91.533,350.853,348.653,0.0
53418.0,STARLINK-4481,PAYLOAD,2022-09-20 14:00:01,15.7318166,0.0001913,53.218,43.1165,40.377,207.0243,0.00029188,0.0004051,0.0,0 STARLINK-4481,1 53418U 22097AG  22263.58334491  .00040510  00000-0  29188-3 0  9994,2 53418  53.2180  43.1165 0001913  40.3770 207.0243 15.73181660  1307,6727.946999999999,91.534,351.1,348.525,0.0
53418.0,STARLINK-4481,PAYLOAD,2022-09-20 22:00:01,15.7322016,0.0001983,53.2178,41.4677,32.382,303.9618,-0.00015745,-0.00022679,0.0,0 STARLINK-4481,1 53418U 22097AG  22263.91668981 -.00022679  00000-0 -15745-3 0  9997,2 53418  53.2178  41.4677 0001983  32.3820 303.9618 15.73220160  1308,6727.8380000000025,91.532,351.037,348.369,0.0
53418.0,STARLINK-4481,PAYLOAD,2022-09-21 08:00:01,15.73199129,0.0001757,53.2179,39.4038,35.546,141.9411,0.0004079,0.00057014,0.0,0 STARLINK-4481,1 53418U 22097AG  22264.33334491  .00057014  00000-0  40790-3 0  9997,2 53418  53.2179  39.4038 0001757  35.5460 141.9411 15.73199129  7061,6727.898,91.533,350.945,348.581,0.0
53418.0,STARLINK-4481,PAYLOAD,2022-09-21 22:00:00,15.7320714,0.0001958,53.2171,36.5191,24.2448,218.8929,8.965799999999999e-05,0.00011984,0.0,0 STARLINK-4481,1 53418U 22097AG  22264.91667824  .00011984  00000-0  89658-4 0  9993,2 53418  53.2171  36.5191 0001958  24.2448 218.8929 15.73207140  1307,6727.875,91.533,351.057,348.422,0.0
53418.0,STARLINK-4481,PAYLOAD,2022-09-22 06:00:00,15.73154944,0.0001819,53.2174,34.8677,31.6769,300.4148,0.00043088,0.0006017,0.0,0 STARLINK-4481,1 53418U 22097AG  22265.25001157  .00060170  00000-0  43088-3 0  9999,2 53418  53.2174  34.8677 0001819  31.6769 300.4148 15.73154944  7203,6728.024,91.536,351.112,348.665,0.0
53418.0,STARLINK-4481,PAYLOAD,2022-09-22 14:00:01,15.73221533,0.0002003,53.2178,33.2198,27.8441,33.1408,-0.00062336,-0.00087291,0.0,0 STARLINK-4481,1 53418U 22097AG  22265.58334491 -.00087291  00000-0 -62336-3 0  9997,2 53418  53.2178  33.2198 0002003  27.8441  33.1408 15.73221533  1301,6727.834,91.532,351.046,348.351,0.0
53418.0,STARLINK-4481,PAYLOAD,2022-09-22 22:00:00,15.73034057,0.0002134999999999,53.217,31.5585,30.8839,119.0778,0.0015520999999999,0.00221472,0.0,0 STARLINK-4481,1 53418U 22097AG  22265.91667824  .00221472  00000-0  15521-2 0  9995,2 53418  53.2170  31.5585 0002135  30.8839 119.0778 15.73034057  1302,6728.368,91.543,351.67,348.797,0.0
53418.0,STARLINK-4481,PAYLOAD,2022-09-23 06:00:00,15.7320335,0.0002021999999999,53.2173,29.9023,34.9251,203.8598,1.0466e-05,8.48e-06,0.0,0 STARLINK-4481,1 53418U 22097AG  22266.25001157  .00000848  00000-0  10466-4 0  9991,2 53418  53.2173  29.9023 0002022  34.9251 203.8598 15.73203350  7369,6727.886,91.533,351.111,348.39,0.0
53418.0,STARLINK-4481,PAYLOAD,2022-09-23 14:00:01,15.73203914,0.000216,53.2174,28.2545,33.9641,293.7536,6.1502e-06,2.42e-06,0.0,0 STARLINK-4481,1 53418U 22097AG  22266.58334491  .00000242  00000-0  61502-5 0  9993,2 53418  53.2174  28.2545 0002160  33.9641 293.7536 15.73203914  1300,6727.884,91.533,351.202,348.296,0.0
53418.0,STARLINK-4481,PAYLOAD,2022-09-23 22:00:00,15.73222639,0.0002218,53.2172,26.6221,16.8539,39.8848,0.00028166,0.00039133,0.0,0 STARLINK-4481,1 53418U 22097AG  22266.91667824  .00039133  00000-0  28166-3 0  9997,2 53418  53.2172  26.6221 0002218  16.8539  39.8848 15.73222639  7464,6727.831,91.532,351.18800000000016,348.20300000000015,0.0
53418.0,STARLINK-4481,PAYLOAD,2022-09-24 14:00:01,15.73224829,0.0002415,53.2179,23.3232,26.1261,208.6533,-0.00015408,-0.00022215,0.0,0 STARLINK-4481,1 53418U 22097AG  22267.58335648 -.00022215  00000-0 -15408-3 0  9997,2 53418  53.2179  23.3232 0002415  26.1261 208.6533 15.73224829  1309,6727.824000000001,91.532,351.314,348.065,0.0
53418.0,STARLINK-4481,PAYLOAD,2022-09-24 22:00:00,15.73205342,0.0001841,53.2173,21.656,28.5864,294.8681,-1.1596e-05,-2.248e-05,0.0,0 STARLINK-4481,1 53418U 22097AG  22267.91667824 -.00002248  00000-0 -11596-4 0  9997,2 53418  53.2173  21.6560 0001841  28.5864 294.8681 15.73205342  7626,6727.88,91.533,350.9840000000001,348.506,0.0
53418.0,STARLINK-4481,PAYLOAD,2022-09-25 06:00:00,15.73200172,0.0002254999999999,53.2181,20.0226,22.3102,30.1935,-8.9884e-05,-0.00013218,0.0,0 STARLINK-4481,1 53418U 22097AG  22268.25001157 -.00013218  00000-0 -89884-4 0  9990,2 53418  53.2181  20.0226 0002255  22.3102  30.1935 15.73200172  7678,6727.895,91.533,351.277,348.24300000000005,0.0
53418.0,STARLINK-4481,PAYLOAD,2022-09-25 14:00:01,15.73198086,0.0002488,53.2178,18.3753,17.9276,123.4968,-7.0125e-06,-1.606e-05,0.0,0 STARLINK-4481,1 53418U 22097AG  22268.58334491 -.00001606  00000-0 -70125-5 0  9993,2 53418  53.2178  18.3753 0002488  17.9276 123.4968 15.73198086  1305,6727.901,91.533,351.44,348.092,0.0
53418.0,STARLINK-4481,PAYLOAD,2022-09-25 22:00:01,15.73189045,0.0002474,53.2174,16.7254,15.0787,215.3294,-0.00011259,-0.00016387,0.0,0 STARLINK-4481,1 53418U 22097AG  22268.91668981 -.00016387  00000-0 -11259-3 0  9997,2 53418  53.2174  16.7254 0002474  15.0787 215.3294 15.73189045  1308,6727.926,91.534,351.456,348.12699999999984,0.0
53418.0,STARLINK-4481,PAYLOAD,2022-09-26 10:00:00,15.73156782,0.0002433,53.218,14.2509,21.1577,162.5478,0.0001976999999999,0.00027166,0.0,0 STARLINK-4481,1 53418U 22097AG  22269.41667824  .00027166  00000-0  19770-3 0  9999,2 53418  53.2180  14.2509 0002433  21.1577 162.5478 15.73156782  7867,6728.018,91.536,351.52,348.246,0.0
53418.0,STARLINK-4481,PAYLOAD,2022-09-26 14:00:01,15.73163579,0.0002618,53.2179,13.4274,20.4625,27.6833,0.00026077,0.0003608,0.0,0 STARLINK-4481,1 53418U 22097AG  22269.58334491  .00036080  00000-0  26077-3 0  9991,2 53418  53.2179  13.4274 0002618  20.4625  27.6833 15.73163579  1307,6727.999,91.535,351.625,348.103,0.0
